[{"OBJECT_NAME":"FLOCK 4Q-2","OBJECT_ID":"2023-174BS","EPOCH":"2026-03-07T05:09:41.711904","MEAN_MOTION":15.44850913,"ECCENTRICITY":0.0008018,"INCLINATION":97.3862,"RA_OF_ASC_NODE":152.5814,"ARG_OF_PERICENTER":146.1905,"MEAN_ANOMALY":213.9856,"EPHEMERIS_TYPE":0,"CLASSIFICATION_TYPE":"U","NORAD_CAT_ID":58320,"ELEMENT_SET_NO":999,"REV_AT_EPOCH":12983,"BSTAR":0.00076308,"MEAN_MOTION_DOT":0.00035861,"MEAN_MOTION_DDOT":0},{"OBJECT_NAME":"FLOCK 4Q-9","OBJECT_ID":"2023-174BU","EPOCH":"2026-03-07T04:02:53.857824","MEAN_MOTION":15.44510144,"ECCENTRICITY":0.0008127,"INCLINATION":97.39,"RA_OF_ASC_NODE":152.5781,"ARG_OF_PERICENTER":148.0311,"MEAN_ANOMALY":212.1431,"EPHEMERIS_TYPE":0,"CLASSIFICATION_TYPE":"U","NORAD_CAT_ID":58322,"ELEMENT_SET_NO":999,"REV_AT_EPOCH":12981,"BSTAR":0.00068909,"MEAN_MOTION_DOT":0.00031989,"MEAN_MOTION_DDOT":0},{"OBJECT_NAME":"FLOCK 4Q-4","OBJECT_ID":"2023-174BZ","EPOCH":"2026-03-07T04:04:15.735648","MEAN_MOTION":15.44118322,"ECCENTRICITY":0.000759,"INCLINATION":97.3856,"RA_OF_ASC_NODE":151.9551,"ARG_OF_PERICENTER":164.7799,"MEAN_ANOMALY":195.3679,"EPHEMERIS_TYPE":0,"CLASSIFICATION_TYPE":"U","NORAD_CAT_ID":58327,"ELEMENT_SET_NO":999,"REV_AT_EPOCH":12979,"BSTAR":0.00057311,"MEAN_MOTION_DOT":0.00026216,"MEAN_MOTION_DDOT":0},{"OBJECT_NAME":"FLOCK 4Q-13","OBJECT_ID":"2023-174CA","EPOCH":"2026-03-07T03:26:52.484064","MEAN_MOTION":15.46789907,"ECCENTRICITY":0.0007545,"INCLINATION":97.4018,"RA_OF_ASC_NODE":154.3313,"ARG_OF_PERICENTER":159.2983,"MEAN_ANOMALY":200.8573,"EPHEMERIS_TYPE":0,"CLASSIFICATION_TYPE":"U","NORAD_CAT_ID":58328,"ELEMENT_SET_NO":999,"REV_AT_EPOCH":12987,"BSTAR":0.00065813,"MEAN_MOTION_DOT":0.0003302,"MEAN_MOTION_DDOT":0},{"OBJECT_NAME":"FLOCK 4Q-21","OBJECT_ID":"2023-174CB","EPOCH":"2026-03-07T04:45:26.612352","MEAN_MOTION":15.57098303,"ECCENTRICITY":0.0005981,"INCLINATION":97.3932,"RA_OF_ASC_NODE":157.4336,"ARG_OF_PERICENTER":164.6462,"MEAN_ANOMALY":195.4975,"EPHEMERIS_TYPE":0,"CLASSIFICATION_TYPE":"U","NORAD_CAT_ID":58329,"ELEMENT_SET_NO":999,"REV_AT_EPOCH":13010,"BSTAR":0.00070469,"MEAN_MOTION_DOT":0.00051215,"MEAN_MOTION_DDOT":0},{"OBJECT_NAME":"FLOCK 4BE-18","OBJECT_ID":"2024-149N","EPOCH":"2026-03-07T04:55:55.711488","MEAN_MOTION":15.38152184,"ECCENTRICITY":0.0003188,"INCLINATION":97.3774,"RA_OF_ASC_NODE":149.1211,"ARG_OF_PERICENTER":251.2503,"MEAN_ANOMALY":108.8396,"EPHEMERIS_TYPE":0,"CLASSIFICATION_TYPE":"U","NORAD_CAT_ID":60480,"ELEMENT_SET_NO":999,"REV_AT_EPOCH":8661,"BSTAR":0.00063598,"MEAN_MOTION_DOT":0.00023857,"MEAN_MOTION_DDOT":0},{"OBJECT_NAME":"FLOCK 4BE-7","OBJECT_ID":"2024-149P","EPOCH":"2026-03-06T04:11:13.585920","MEAN_MOTION":15.36127526,"ECCENTRICITY":0.00020931,"INCLINATION":97.3809,"RA_OF_ASC_NODE":147.681,"ARG_OF_PERICENTER":246.3206,"MEAN_ANOMALY":113.7819,"EPHEMERIS_TYPE":0,"CLASSIFICATION_TYPE":"U","NORAD_CAT_ID":60481,"ELEMENT_SET_NO":999,"REV_AT_EPOCH":8641,"BSTAR":0.00050198532,"MEAN_MOTION_DOT":0.00017607,"MEAN_MOTION_DDOT":0},{"OBJECT_NAME":"FLOCK 4BE-26","OBJECT_ID":"2024-149S","EPOCH":"2026-03-07T03:55:46.818048","MEAN_MOTION":15.43686796,"ECCENTRICITY":0.0005994,"INCLINATION":97.3758,"RA_OF_ASC_NODE":148.9799,"ARG_OF_PERICENTER":248.3611,"MEAN_ANOMALY":111.6999,"EPHEMERIS_TYPE":0,"CLASSIFICATION_TYPE":"U","NORAD_CAT_ID":60484,"ELEMENT_SET_NO":999,"REV_AT_EPOCH":8660,"BSTAR":0.002184,"MEAN_MOTION_DOT":0.00099599,"MEAN_MOTION_DDOT":0},{"OBJECT_NAME":"FLOCK 4BE-36","OBJECT_ID":"2024-149U","EPOCH":"2026-03-07T04:06:11.520288","MEAN_MOTION":15.39017108,"ECCENTRICITY":0.0002807,"INCLINATION":97.3786,"RA_OF_ASC_NODE":149.629,"ARG_OF_PERICENTER":264.8346,"MEAN_ANOMALY":95.2579,"EPHEMERIS_TYPE":0,"CLASSIFICATION_TYPE":"U","NORAD_CAT_ID":60486,"ELEMENT_SET_NO":999,"REV_AT_EPOCH":8664,"BSTAR":0.00062673,"MEAN_MOTION_DOT":0.0002418,"MEAN_MOTION_DDOT":0},{"OBJECT_NAME":"FLOCK 4BE-25","OBJECT_ID":"2024-149V","EPOCH":"2026-03-07T03:57:36.454464","MEAN_MOTION":15.35894404,"ECCENTRICITY":0.0001448,"INCLINATION":97.3843,"RA_OF_ASC_NODE":148.8235,"ARG_OF_PERICENTER":228.0696,"MEAN_ANOMALY":132.0424,"EPHEMERIS_TYPE":0,"CLASSIFICATION_TYPE":"U","NORAD_CAT_ID":60487,"ELEMENT_SET_NO":999,"REV_AT_EPOCH":8656,"BSTAR":0.00052443,"MEAN_MOTION_DOT":0.00018262,"MEAN_MOTION_DDOT":0},{"OBJECT_NAME":"FLOCK 4BE-31","OBJECT_ID":"2024-149W","EPOCH":"2026-03-06T11:47:33.475488","MEAN_MOTION":15.39771676,"ECCENTRICITY":0.00018061,"INCLINATION":97.3845,"RA_OF_ASC_NODE":149.5609,"ARG_OF_PERICENTER":259.3184,"MEAN_ANOMALY":100.7859,"EPHEMERIS_TYPE":0,"CLASSIFICATION_TYPE":"U","NORAD_CAT_ID":60488,"ELEMENT_SET_NO":999,"REV_AT_EPOCH":8655,"BSTAR":0.00065130204,"MEAN_MOTION_DOT":0.00025763,"MEAN_MOTION_DDOT":0},{"OBJECT_NAME":"FLOCK 4BE-20","OBJECT_ID":"2024-149X","EPOCH":"2026-03-07T04:58:22.502496","MEAN_MOTION":15.35173574,"ECCENTRICITY":0.0002571,"INCLINATION":97.3748,"RA_OF_ASC_NODE":148.0004,"ARG_OF_PERICENTER":254.4488,"MEAN_ANOMALY":105.6472,"EPHEMERIS_TYPE":0,"CLASSIFICATION_TYPE":"U","NORAD_CAT_ID":60489,"ELEMENT_SET_NO":999,"REV_AT_EPOCH":8655,"BSTAR":0.00047884,"MEAN_MOTION_DOT":0.00016285,"MEAN_MOTION_DDOT":0},{"OBJECT_NAME":"FLOCK 4BE-23","OBJECT_ID":"2024-149Y","EPOCH":"2026-03-07T04:09:35.529696","MEAN_MOTION":15.34813634,"ECCENTRICITY":0.0002127,"INCLINATION":97.3825,"RA_OF_ASC_NODE":148.287,"ARG_OF_PERICENTER":267.1541,"MEAN_ANOMALY":92.9459,"EPHEMERIS_TYPE":0,"CLASSIFICATION_TYPE":"U","NORAD_CAT_ID":60490,"ELEMENT_SET_NO":999,"REV_AT_EPOCH":8653,"BSTAR":0.00051032,"MEAN_MOTION_DOT":0.00017164,"MEAN_MOTION_DDOT":0},{"OBJECT_NAME":"FLOCK 4BE-15","OBJECT_ID":"2024-149Z","EPOCH":"2026-03-07T04:13:45.732864","MEAN_MOTION":15.39893227,"ECCENTRICITY":0.0003035,"INCLINATION":97.3765,"RA_OF_ASC_NODE":149.3251,"ARG_OF_PERICENTER":315.5766,"MEAN_ANOMALY":44.5237,"EPHEMERIS_TYPE":0,"CLASSIFICATION_TYPE":"U","NORAD_CAT_ID":60491,"ELEMENT_SET_NO":999,"REV_AT_EPOCH":8663,"BSTAR":0.0020905,"MEAN_MOTION_DOT":0.00083846,"MEAN_MOTION_DDOT":0},{"OBJECT_NAME":"FLOCK 4BE-17","OBJECT_ID":"2024-149AA","EPOCH":"2026-03-07T03:43:08.417856","MEAN_MOTION":15.36530326,"ECCENTRICITY":0.0002209,"INCLINATION":97.3817,"RA_OF_ASC_NODE":148.9418,"ARG_OF_PERICENTER":245.0246,"MEAN_ANOMALY":115.0769,"EPHEMERIS_TYPE":0,"CLASSIFICATION_TYPE":"U","NORAD_CAT_ID":60492,"ELEMENT_SET_NO":999,"REV_AT_EPOCH":8657,"BSTAR":0.00054755,"MEAN_MOTION_DOT":0.00019467,"MEAN_MOTION_DDOT":0},{"OBJECT_NAME":"FLOCK 4BE-22","OBJECT_ID":"2024-149AC","EPOCH":"2026-03-07T03:45:52.689312","MEAN_MOTION":15.37601252,"ECCENTRICITY":0.0002769,"INCLINATION":97.3776,"RA_OF_ASC_NODE":148.9933,"ARG_OF_PERICENTER":270.9635,"MEAN_ANOMALY":89.1292,"EPHEMERIS_TYPE":0,"CLASSIFICATION_TYPE":"U","NORAD_CAT_ID":60494,"ELEMENT_SET_NO":999,"REV_AT_EPOCH":8660,"BSTAR":0.00060858,"MEAN_MOTION_DOT":0.00022416,"MEAN_MOTION_DDOT":0}]
