FLOCK 4Q-2              
1 58320U 23174BS  26066.21506611  .00035861  00000+0  76308-3 0  9996
2 58320  97.3862 152.5814 0008018 146.1905 213.9856 15.44850913129831
FLOCK 4Q-9              
1 58322U 23174BU  26066.16867891  .00031989  00000+0  68909-3 0  9997
2 58322  97.3900 152.5781 0008127 148.0311 212.1431 15.44510144129819
FLOCK 4Q-4              
1 58327U 23174BZ  26066.16962657  .00026216  00000+0  57311-3 0  9990
2 58327  97.3856 151.9551 0007590 164.7799 195.3679 15.44118322129795
FLOCK 4Q-13             
1 58328U 23174CA  26066.14366301  .00033020  00000+0  65813-3 0  9990
2 58328  97.4018 154.3313 0007545 159.2983 200.8573 15.46789907129873
FLOCK 4Q-21             
1 58329U 23174CB  26066.19822468  .00051215  00000+0  70469-3 0  9996
2 58329  97.3932 157.4336 0005981 164.6462 195.4975 15.57098303130109
FLOCK 4BE-18            
1 60480U 24149N   26066.20550592  .00023857  00000+0  63598-3 0  9994
2 60480  97.3774 149.1211 0003188 251.2503 108.8396 15.38152184 86618
FLOCK 4BE-7             
1 60481U 24149P   26065.17446280  .00017607  00000+0  50199-3 0  9997
2 60481  97.3809 147.6810 0002093 246.3206 113.7819 15.36127526 86418
FLOCK 4BE-26            
1 60484U 24149S   26066.16373632  .00099599  00000+0  21840-2 0  9990
2 60484  97.3758 148.9799 0005994 248.3611 111.6999 15.43686796 86603
FLOCK 4BE-36            
1 60486U 24149U   26066.17096667  .00024180  00000+0  62673-3 0  9997
2 60486  97.3786 149.6290 0002807 264.8346  95.2579 15.39017108 86643
FLOCK 4BE-25            
1 60487U 24149V   26066.16500526  .00018262  00000+0  52443-3 0  9999
2 60487  97.3843 148.8235 0001448 228.0696 132.0424 15.35894404 86566
FLOCK 4BE-31            
1 60488U 24149W   26065.49135967  .00025763  00000+0  65130-3 0  9999
2 60488  97.3845 149.5609 0001806 259.3184 100.7859 15.39771676 86551
FLOCK 4BE-20            
1 60489U 24149X   26066.20720489  .00016285  00000+0  47884-3 0  9994
2 60489  97.3748 148.0004 0002571 254.4488 105.6472 15.35173574 86554
FLOCK 4BE-23            
1 60490U 24149Y   26066.17332789  .00017164  00000+0  51032-3 0  9991
2 60490  97.3825 148.2870 0002127 267.1541  92.9459 15.34813634 86531
FLOCK 4BE-15            
1 60491U 24149Z   26066.17622376  .00083846  00000+0  20905-2 0  9990
2 60491  97.3765 149.3251 0003035 315.5766  44.5237 15.39893227 86635
FLOCK 4BE-17            
1 60492U 24149AA  26066.15495854  .00019467  00000+0  54755-3 0  9997
2 60492  97.3817 148.9418 0002209 245.0246 115.0769 15.36530326 86578
FLOCK 4BE-22            
1 60494U 24149AC  26066.15685983  .00022416  00000+0  60858-3 0  9992
2 60494  97.3776 148.9933 0002769 270.9635  89.1292 15.37601252 86600
